[
  { "zip": "90001", "cityParent": "Los Angeles", "stateParent": "California" },
  { "zip": "90002", "cityParent": "Los Angeles", "stateParent": "California" },
  { "zip": "90003", "cityParent": "Los Angeles", "stateParent": "California" },
  { "zip": "90004", "cityParent": "Los Angeles", "stateParent": "California" },
  { "zip": "90005", "cityParent": "Los Angeles", "stateParent": "California" },
  { "zip": "90006", "cityParent": "Los Angeles", "stateParent": "California" },
  { "zip": "90007", "cityParent": "Los Angeles", "stateParent": "California" },
  { "zip": "90008", "cityParent": "Los Angeles", "stateParent": "California" },
  { "zip": "90009", "cityParent": "Los Angeles", "stateParent": "California" },
  { "zip": "90010", "cityParent": "Los Angeles", "stateParent": "California" },
  { "zip": "90011", "cityParent": "Los Angeles", "stateParent": "California" },
  { "zip": "90012", "cityParent": "Los Angeles", "stateParent": "California" },
  { "zip": "90013", "cityParent": "Los Angeles", "stateParent": "California" },
  { "zip": "90014", "cityParent": "Los Angeles", "stateParent": "California" },
  { "zip": "90015", "cityParent": "Los Angeles", "stateParent": "California" },
  { "zip": "90016", "cityParent": "Los Angeles", "stateParent": "California" },
  { "zip": "90017", "cityParent": "Los Angeles", "stateParent": "California" },
  { "zip": "90018", "cityParent": "Los Angeles", "stateParent": "California" },
  { "zip": "90019", "cityParent": "Los Angeles", "stateParent": "California" },
  { "zip": "90020", "cityParent": "Los Angeles", "stateParent": "California" }
]
